NORAD_CAT_ID,OBJECT_NAME,OBJECT_TYPE,EPOCH,MEAN_MOTION,ECCENTRICITY,INCLINATION,RA_OF_ASC_NODE,ARG_OF_PERICENTER,MEAN_ANOMALY,BSTAR,MEAN_MOTION_DOT,MEAN_MOTION_DDOT,TLE_LINE0,TLE_LINE1,TLE_LINE2,SEMIMAJOR_AXIS,PERIOD,APOGEE,PERIGEE,DECAYED
56793.0,STARLINK-6052,PAYLOAD,2023-09-26 22:00:00,15.30146932,0.0003416,69.9988,81.5562,275.8875,138.0852,-0.032909,-0.00884947,0.0,0 STARLINK-6052,1 56793U 23078AC  23269.91667824 -.00884947  00000-0 -32909-1 0  9991,2 56793  69.9988  81.5562 0003416 275.8875 138.0852 15.30146932  5976,6853.511,94.109,477.717,473.034,0.0
56793.0,STARLINK-6052,PAYLOAD,2023-09-27 04:00:00,15.29680116,0.000337,69.9987,80.8944,272.134,78.3526,-0.035673,-0.00952378,0.0,0 STARLINK-6052,1 56793U 23078AC  23270.16667824 -.00952378  00000-0 -35673-1 0  9995,2 56793  69.9987  80.8944 0003370 272.1340  78.3526 15.29680116 18925,6854.905,94.137,479.08,474.46,0.0
56793.0,STARLINK-6052,PAYLOAD,2023-09-27 14:00:01,15.28883329,0.0003297,69.999,79.7924,271.3402,212.3522,-0.03701,-0.00963203,0.0,0 STARLINK-6052,1 56793U 23078AC  23270.58334491 -.00963203  00000-0 -37010-1 0  9998,2 56793  69.9990  79.7924 0003297 271.3402 212.3522 15.28883329  5924,6857.286,94.186,481.412,476.89,0.0
56793.0,STARLINK-6052,PAYLOAD,2023-09-27 20:00:01,15.28355024,0.0003365,69.9989,79.1318,276.2535,142.7985,-0.035119,-0.00892856,0.0,0 STARLINK-6052,1 56793U 23078AC  23270.83334491 -.00892856  00000-0 -35119-1 0  9999,2 56793  69.9989  79.1318 0003365 276.2535 142.7985 15.28355024 19021,6858.866,94.219,483.039,478.423,0.0
56793.0,STARLINK-6052,PAYLOAD,2023-09-28 12:00:00,15.27077488,0.0003235,69.9993,77.3726,270.5911,213.878,-0.037921,-0.00935912,0.0,0 STARLINK-6052,1 56793U 23078AC  23271.50001157 -.00935912  00000-0 -37921-1 0  9998,2 56793  69.9993  77.3726 0003235 270.5911 213.8780 15.27077488 19128,6862.691,94.298,486.776,482.336,0.0
56793.0,STARLINK-6052,PAYLOAD,2023-09-28 16:00:30,15.26746098,0.0003389,69.9992,76.9325,271.3239,50.9311,-0.038623,-0.00943152,0.0,0 STARLINK-6052,1 56793U 23078AC  23271.66702546 -.00943152  00000-0 -38623-1 0  9990,2 56793  69.9992  76.9325 0003389 271.3239  50.9311 15.26746098  5987,6863.684,94.318,487.875,483.223,0.0
56793.0,STARLINK-6052,PAYLOAD,2023-09-28 22:00:01,15.26232697,0.0003314,69.999,76.2748,274.9647,338.8894,-0.037132,-0.00885474,0.0,0 STARLINK-6052,1 56793U 23078AC  23271.91668981 -.00885474  00000-0 -37132-1 0  9998,2 56793  69.9990  76.2748 0003314 274.9647 338.8894 15.26232697  6022,6865.223,94.35,489.364,484.813,0.0
56793.0,STARLINK-6052,PAYLOAD,2023-09-29 12:00:00,15.2512032,0.0003208,69.9996,74.7405,268.6397,308.1104,-0.040152,-0.00934113,0.0,0 STARLINK-6052,1 56793U 23078AC  23272.50001157 -.00934113  00000-0 -40152-1 0  9991,2 56793  69.9996  74.7405 0003208 268.6397 308.1104 15.25120320 19289,6868.561,94.419,492.63,488.223,0.0
56793.0,STARLINK-6052,PAYLOAD,2023-09-29 14:00:01,15.24964569,0.0003367,69.9996,74.5214,270.2002,43.9241,-0.04129,-0.00954524,0.0,0 STARLINK-6052,1 56793U 23078AC  23272.58334491 -.00954524  00000-0 -41290-1 0  9991,2 56793  69.9996  74.5214 0003367 270.2002  43.9241 15.24964569  6016,6869.029,94.428,493.207,488.581,0.0
56793.0,STARLINK-6052,PAYLOAD,2023-09-30 06:00:00,15.2360862,0.0003365,69.9996,72.7715,270.9882,100.373,-0.039461,-0.00870863,0.0,0 STARLINK-6052,1 56793U 23078AC  23273.25001157 -.00870863  00000-0 -39461-1 0  9996,2 56793  69.9996  72.7715 0003365 270.9882 100.3730 15.23608620  6027,6873.104,94.512,497.281,492.656,0.0
56793.0,STARLINK-6052,PAYLOAD,2023-09-30 12:00:00,15.23164533,0.0003379,70.0,72.1164,268.6139,33.3763,-0.042607,-0.00934876,0.0,0 STARLINK-6052,1 56793U 23078AC  23273.50001157 -.00934876  00000-0 -42607-1 0  9995,2 56793  70.0000  72.1164 0003379 268.6139  33.3763 15.23164533 19432,6874.44,94.54,498.627,493.982,0.0
56793.0,STARLINK-6052,PAYLOAD,2023-10-01 12:00:00,15.21209798,0.0003412,70.0004,69.5005,270.6386,109.5517,-0.045409,-0.00939998,0.0,0 STARLINK-6052,1 56793U 23078AC  23274.50001157 -.00939998  00000-0 -45409-1 0  9999,2 56793  70.0004  69.5005 0003412 270.6386 109.5517 15.21209798 19585,6880.327,94.661,504.54,499.845,0.0
56793.0,STARLINK-6052,PAYLOAD,2023-10-01 14:00:01,15.21050782,0.0003274,70.0005,69.2828,272.8832,203.5094,-0.046518,-0.00957071,0.0,0 STARLINK-6052,1 56793U 23078AC  23274.58334491 -.00957071  00000-0 -46518-1 0  9991,2 56793  70.0005  69.2828 0003274 272.8832 203.5094 15.21050782  5961,6880.807,94.671,504.925,500.419,0.0
56793.0,STARLINK-6052,PAYLOAD,2023-10-01 22:00:00,15.20363304,0.0003285,70.0003,68.4127,277.8288,222.8821,-0.044319,-0.00898045,0.0,0 STARLINK-6052,1 56793U 23078AC  23274.91667824 -.00898045  00000-0 -44319-1 0  9999,2 56793  70.0003  68.4127 0003285 277.8288 222.8821 15.20363304  6020,6882.881,94.714,507.007,502.485,0.0
56793.0,STARLINK-6052,PAYLOAD,2023-10-02 20:00:01,15.185627,0.0003302,70.0008,66.0246,277.274,196.2496,-0.046229,-0.00889554,0.0,0 STARLINK-6052,1 56793U 23078AC  23275.83334491 -.00889554  00000-0 -46229-1 0  9999,2 56793  70.0008  66.0246 0003302 277.2740 196.2496 15.18562700 19785,6888.321,94.827,512.46,507.911,0.0
56793.0,STARLINK-6052,PAYLOAD,2023-10-02 22:00:00,15.18410564,0.0003221,70.0005,65.8079,275.7843,293.1512,-0.047341,-0.00905707,0.0,0 STARLINK-6052,1 56793U 23078AC  23275.91667824 -.00905707  00000-0 -47341-1 0  9992,2 56793  70.0005  65.8079 0003221 275.7843 293.1512 15.18410564  5961,6888.781,94.836,512.865,508.427,0.0
56793.0,STARLINK-6052,PAYLOAD,2023-10-03 12:00:00,15.17297237,0.0003212,70.001,64.292,270.6196,244.85,-0.051191,-0.00945264,0.0,0 STARLINK-6052,1 56793U 23078AC  23276.50001157 -.00945264  00000-0 -51191-1 0  9999,2 56793  70.0010  64.2920 0003212 270.6196 244.8500 15.17297237 19885,6892.15,94.906,516.229,511.801,0.0
56793.0,STARLINK-6052,PAYLOAD,2023-10-03 14:00:01,15.17132277,0.0003272,70.0009,64.0757,269.832,340.6675,-0.051709,-0.0094995,0.0,0 STARLINK-6052,1 56793U 23078AC  23276.58334491 -.00949950  00000-0 -51709-1 0  9998,2 56793  70.0009  64.0757 0003272 269.8320 340.6675 15.17132277  6026,6892.65,94.916,516.77,512.259,0.0
56793.0,STARLINK-6052,PAYLOAD,2023-10-03 22:00:00,15.16457796,0.0003314,70.0006,63.2108,274.3351,355.7839,-0.050488,-0.00912623,0.0,0 STARLINK-6052,1 56793U 23078AC  23276.91667824 -.00912623  00000-0 -50488-1 0  9994,2 56793  70.0006  63.2108 0003314 274.3351 355.7839 15.16457796  6019,6894.693,94.958,518.843,514.273,0.0
56793.0,STARLINK-6052,PAYLOAD,2023-10-04 14:00:01,15.15174378,0.0003349,70.0009,61.4839,269.8186,37.1733,-0.054602,-0.00948634,0.0,0 STARLINK-6052,1 56793U 23078AC  23277.58334491 -.00948634  00000-0 -54602-1 0  9992,2 56793  70.0009  61.4839 0003349 269.8186  37.1733 15.15174378  6022,6898.586,95.039,522.762,518.141,0.0
56793.0,STARLINK-6052,PAYLOAD,2023-10-04 20:00:01,15.14648397,0.0003262,70.0008,60.8371,274.4896,315.5367,-0.051547,-0.00886888,0.0,0 STARLINK-6052,1 56793U 23078AC  23277.83334491 -.00886888  00000-0 -51547-1 0  9997,2 56793  70.0008  60.8371 0003262 274.4896 315.5367 15.14648397 20094,6900.183,95.072,524.299,519.797,0.0
56793.0,STARLINK-6052,PAYLOAD,2023-10-04 22:00:01,15.14504347,0.000338,70.0005,60.6215,274.4579,49.8677,-0.053741,-0.00918444,0.0,0 STARLINK-6052,1 56793U 23078AC  23277.91668981 -.00918444  00000-0 -53741-1 0  9992,2 56793  70.0005  60.6215 0003380 274.4579  49.8677 15.14504347  5916,6900.621,95.081,524.818,520.153,0.0
56793.0,STARLINK-6052,PAYLOAD,2023-10-05 04:00:00,15.14000931,0.0003177,70.0007,59.9755,269.0832,337.6213,-0.053662,-0.00905115,0.0,0 STARLINK-6052,1 56793U 23078AC  23278.16667824 -.00905115  00000-0 -53662-1 0  9998,2 56793  70.0007  59.9755 0003177 269.0832 337.6213 15.14000931 20140,6902.15,95.112,526.208,521.823,0.0
56793.0,STARLINK-6052,PAYLOAD,2023-10-05 14:00:01,15.13215587,0.000335,70.0009,58.8998,270.5451,85.8982,-0.057595,-0.0094687,0.0,0 STARLINK-6052,1 56793U 23078AC  23278.58334491 -.00946870  00000-0 -57595-1 0  9997,2 56793  70.0009  58.8998 0003350 270.5451  85.8982 15.13215587  6015,6904.538,95.162,528.716,524.09,0.0
56793.0,STARLINK-6052,PAYLOAD,2023-10-05 20:00:01,15.12692774,0.0003293,70.0007,58.255,273.7601,3.9569,-0.05459,-0.00888753,0.0,0 STARLINK-6052,1 56793U 23078AC  23278.83334491 -.00888753  00000-0 -54590-1 0  9992,2 56793  70.0007  58.2550 0003293 273.7601   3.9569 15.12692774 20248,6906.129,95.194,530.268,525.72,0.0
56793.0,STARLINK-6052,PAYLOAD,2023-10-05 22:00:00,15.12549792,0.0003363,70.0004,58.0401,275.2898,96.0765,-0.057068,-0.0092273,0.0,0 STARLINK-6052,1 56793U 23078AC  23278.91667824 -.00922730  00000-0 -57068-1 0  9997,2 56793  70.0004  58.0401 0003363 275.2898  96.0765 15.12549792  5998,6906.564,95.203,530.752,526.107,0.0
56793.0,STARLINK-6052,PAYLOAD,2023-10-06 04:00:00,15.120397,0.0003225,70.0006,57.396,268.5511,23.4989,-0.056212,-0.00897881,0.0,0 STARLINK-6052,1 56793U 23078AC  23279.16667824 -.00897881  00000-0 -56212-1 0  9993,2 56793  70.0006  57.3960 0003225 268.5511  23.4989 15.12039700 20291,6908.117,95.236,532.21,527.755,0.0
56793.0,STARLINK-6052,PAYLOAD,2023-10-06 14:00:01,15.11259027,0.0003361,70.0007,56.3234,271.632,127.2857,-0.060915,-0.00948028,0.0,0 STARLINK-6052,1 56793U 23078AC  23279.58335648 -.00948028  00000-0 -60915-1 0  9990,2 56793  70.0007  56.3234 0003361 271.6320 127.2857 15.11259027  6004,6910.496,95.285,534.684,530.039,0.0
56793.0,STARLINK-6052,PAYLOAD,2023-10-06 20:00:01,15.10737431,0.000339,70.0005,55.6806,273.7534,44.6127,-0.057758,-0.00890336,0.0,0 STARLINK-6052,1 56793U 23078AC  23279.83334491 -.00890336  00000-0 -57758-1 0  9992,2 56793  70.0005  55.6806 0003390 273.7534  44.6127 15.10737431 20390,6912.087,95.318,536.295,531.609,0.0
56793.0,STARLINK-6052,PAYLOAD,2023-10-06 22:00:01,15.10594716,0.0003351,70.0003,55.4664,275.7266,135.765,-0.060446,-0.00925321,0.0,0 STARLINK-6052,1 56793U 23078AC  23279.91668981 -.00925321  00000-0 -60446-1 0  9996,2 56793  70.0003  55.4664 0003351 275.7266 135.7650 15.10594716  6001,6912.522,95.327,536.704,532.071,0.0
